[{"OBJECT_NAME":"STARLINK-2342","OBJECT_ID":"2021-021Z","EPOCH":"2026-03-10T00:00:02.999808","MEAN_MOTION":15.40904112,"ECCENTRICITY":0.00016531,"INCLINATION":53.1612,"RA_OF_ASC_NODE":266.4602,"ARG_OF_PERICENTER":74.5367,"MEAN_ANOMALY":257.8854,"EPHEMERIS_TYPE":0,"CLASSIFICATION_TYPE":"U","NORAD_CAT_ID":47883,"ELEMENT_SET_NO":999,"REV_AT_EPOCH":571,"BSTAR":0.033080837,"MEAN_MOTION_DOT":0.01534298,"MEAN_MOTION_DDOT":0},{"OBJECT_NAME":"OBJECT D","OBJECT_ID":"2025-012D","EPOCH":"2026-03-09T18:03:40.205088","MEAN_MOTION":15.52893928,"ECCENTRICITY":0.000576,"INCLINATION":97.4235,"RA_OF_ASC_NODE":150.5063,"ARG_OF_PERICENTER":227.7345,"MEAN_ANOMALY":132.342,"EPHEMERIS_TYPE":0,"CLASSIFICATION_TYPE":"U","NORAD_CAT_ID":62728,"ELEMENT_SET_NO":999,"REV_AT_EPOCH":6360,"BSTAR":0.0017186224,"MEAN_MOTION_DOT":0.00108011,"MEAN_MOTION_DDOT":0}]
